[
    {
        "CCSDS_OMM_VERS": "3.0",
        "COMMENT": "GENERATED VIA SPACE-TRACK.ORG API",
        "CREATION_DATE": "2025-04-14T03:05:54",
        "ORIGINATOR": "18 SPCS",
        "OBJECT_NAME": "GALILEO 7 (263)",
        "OBJECT_ID": "2015-017A",
        "CENTER_NAME": "EARTH",
        "REF_FRAME": "TEME",
        "TIME_SYSTEM": "UTC",
        "MEAN_ELEMENT_THEORY": "SGP4",
        "EPOCH": "2025-04-12T01:46:03.991584",
        "MEAN_MOTION": "1.70475760",
        "ECCENTRICITY": "0.00071170",
        "INCLINATION": "56.8936",
        "RA_OF_ASC_NODE": "353.3398",
        "ARG_OF_PERICENTER": "282.0508",
        "MEAN_ANOMALY": "77.9131",
        "EPHEMERIS_TYPE": "0",
        "CLASSIFICATION_TYPE": "U",
        "NORAD_CAT_ID": "40544",
        "ELEMENT_SET_NO": "999",
        "REV_AT_EPOCH": "6185",
        "BSTAR": "0.00000000000000",
        "MEAN_MOTION_DOT": "-0.00000097",
        "MEAN_MOTION_DDOT": "0.0000000000000",
        "SEMIMAJOR_AXIS": "29600.116",
        "PERIOD": "844.695",
        "APOAPSIS": "23243.048",
        "PERIAPSIS": "23200.915",
        "OBJECT_TYPE": "PAYLOAD",
        "RCS_SIZE": "LARGE",
        "COUNTRY_CODE": "ESA",
        "LAUNCH_DATE": "2015-03-27",
        "SITE": "FRGUI",
        "DECAY_DATE": null,
        "FILE": "4701263",
        "GP_ID": "285537039",
        "TLE_LINE0": "0 GALILEO 7 (263)",
        "TLE_LINE1": "1 40544U 15017A   25102.07365731 -.00000097  00000-0  00000-0 0  9990",
        "TLE_LINE2": "2 40544  56.8936 353.3398 0007117 282.0508  77.9131  1.70475760 61856"
    }
]